ORBCOMM FM20            
1 25416U 98046D   25344.30808362  .00001763  00000+0  62839-3 0  9990
2 25416  44.9938  66.9541 0001643 205.3834 154.6933 14.37655936429608
ORBCOMM FM16            
1 25417U 98046E   25344.29537837  .00002324  00000+0  78332-3 0  9994
2 25417  44.9937  56.1798 0003439 136.0816 224.0307 14.39519521429628
ORBCOMM FM15            
1 25418U 98046F   25344.24660857  .00002150  00000+0  73342-3 0  9992
2 25418  44.9968  62.0940 0003271 137.7687 222.3414 14.39148502429601
ORBCOMM FM14            
1 25419U 98046G   25344.28691154  .00002164  00000+0  73179-3 0  9994
2 25419  44.9957  59.6037 0002103 150.8171 209.2796 14.39565904429589
ORBCOMM FM13            
1 25420U 98046H   25344.28227620  .00002011  00000+0  70240-3 0  9996
2 25420  44.9971  69.3857 0003597 102.2498 257.8753 14.38188215428582
ORBCOMM FM21            
1 25475U 98053A   25343.98482250  .00001343  00000+0  48867-3 0  9999
2 25475  45.0062 156.7309 0001408  59.1543 300.9444 14.37783739422546
ORBCOMM FM22            
1 25476U 98053B   25344.16560501  .00001713  00000+0  59617-3 0  9993
2 25476  45.0050 149.2330 0002759  45.5800 314.5274 14.38954167422616
ORBCOMM FM23            
1 25477U 98053C   25344.16883600  .00001459  00000+0  52433-3 0  9998
2 25477  45.0063 157.7036 0002217  42.4803 317.6217 14.38022624422723
